[Satellite]
VERSION=1.1
NAME=STARLINK-5054
NICKNAME=STARLINK-5054
TLE1=1 53906U 22119W   22296.91667824 -.00055156  00000+0 -39057-3 0  9992
TLE2=2 53906  53.2147 109.7140 0002241  18.3878  82.4419 15.73230885  1307
STATUS=0
